{
    "links": {
        "self": "http://www.neowsapp.com/rest/v1/neo/3718319?api_key=iIulBulltgU6a56xZRHN4H3l9WmuAYTsLGpBGhQ2"
    },
    "id": "3718319",
    "neo_reference_id": "3718319",
    "name": "(2015 HA117)",
    "designation": "2015 HA117",
    "nasa_jpl_url": "http://ssd.jpl.nasa.gov/sbdb.cgi?sstr=3718319",
    "absolute_magnitude_h": 27.2,
    "estimated_diameter": {
        "kilometers": {
            "estimated_diameter_min": 0.0096506147,
            "estimated_diameter_max": 0.0215794305
        },
        "meters": {
            "estimated_diameter_min": 9.6506146958,
            "estimated_diameter_max": 21.5794304844
        },
        "miles": {
            "estimated_diameter_min": 0.0059966121,
            "estimated_diameter_max": 0.0134088323
        },
        "feet": {
            "estimated_diameter_min": 31.6621227185,
            "estimated_diameter_max": 70.7986587106
        }
    },
    "is_potentially_hazardous_asteroid": false,
    "close_approach_data": [
        {
            "close_approach_date": "2013-07-06",
            "close_approach_date_full": "2013-Jul-06 11:16",
            "epoch_date_close_approach": 1373109360000,
            "relative_velocity": {
                "kilometers_per_second": "17.3013794796",
                "kilometers_per_hour": "62284.9661264779",
                "miles_per_hour": "38701.4557578662"
            },
            "miss_distance": {
                "astronomical": "0.4802515065",
                "lunar": "186.8178360285",
                "kilometers": "71844602.436691155",
                "miles": "44642165.869421739"
            },
            "orbiting_body": "Earth"
        },
        {
            "close_approach_date": "2015-04-27",
            "close_approach_date_full": "2015-Apr-27 09:29",
            "epoch_date_close_approach": 1430126940000,
            "relative_velocity": {
                "kilometers_per_second": "10.9835861481",
                "kilometers_per_hour": "39540.9101333159",
                "miles_per_hour": "24569.1838547817"
            },
            "miss_distance": {
                "astronomical": "0.0185771232",
                "lunar": "7.2265009248",
                "kilometers": "2779098.061447584",
                "miles": "1726851.4602172992"
            },
            "orbiting_body": "Earth"
        }
    ],
    "orbital_data": {
        "orbit_id": "5",
        "orbit_determination_date": "2017-04-06 08:34:04",
        "first_observation_date": "2015-04-24",
        "last_observation_date": "2015-05-01",
        "data_arc_in_days": 7,
        "observations_used": 21,
        "orbit_uncertainty": "8",
        "minimum_orbit_intersection": ".0175325",
        "jupiter_tisserand_invariant": "4.352",
        "epoch_osculation": "2457141.5",
        "eccentricity": ".3482236526134677",
        "semi_major_axis": "1.541591234633466",
        "inclination": "16.94049523298359",
        "ascending_node_longitude": "35.9942520413009",
        "orbital_period": "699.1208837166017",
        "perihelion_distance": "1.004772704072495",
        "perihelion_argument": "202.5945410361802",
        "aphelion_distance": "2.078409765194436",
        "perihelion_time": "2457159.152829435971",
        "mean_anomaly": "350.9099860339379",
        "mean_motion": ".5149324078065031",
        "equinox": "J2000",
        "orbit_class": {
            "orbit_class_type": "APO",
            "orbit_class_description": "Near-Earth asteroid orbits which cross the Earth’s orbit similar to that of 1862 Apollo",
            "orbit_class_range": "a (semi-major axis) > 1.0 AU; q (perihelion) < 1.017 AU"
        }
    },
    "is_sentry_object": false
}